{
  "type": "FeatureCollection",
  "features": [
    {
      "type": "Feature",
      "properties": { "name": "Contiguous United States" },
      "geometry": {
        "type": "Polygon",
        "coordinates": [[[-125.0,24.4],[-66.9,24.4],[-66.9,49.5],[-125.0,49.5],[-125.0,24.4]]]
      }
    },
    {
      "type": "Feature",
      "properties": { "name": "Alaska and the eastern Aleutians" },
      "geometry": {
        "type": "Polygon",
        "coordinates": [[[-180.0,51.0],[-129.0,51.0],[-129.0,72.0],[-180.0,72.0],[-180.0,51.0]]]
      }
    },
    {
      "type": "Feature",
      "properties": { "name": "Western Aleutians, east of the antimeridian" },
      "geometry": {
        "type": "Polygon",
        "coordinates": [[[172.0,51.0],[180.0,51.0],[180.0,54.5],[172.0,54.5],[172.0,51.0]]]
      }
    },
    {
      "type": "Feature",
      "properties": { "name": "Hawaii" },
      "geometry": {
        "type": "Polygon",
        "coordinates": [[[-160.5,18.8],[-154.7,18.8],[-154.7,22.4],[-160.5,22.4],[-160.5,18.8]]]
      }
    },
    {
      "type": "Feature",
      "properties": { "name": "Puerto Rico and the US Virgin Islands" },
      "geometry": {
        "type": "Polygon",
        "coordinates": [[[-67.4,17.8],[-64.5,17.8],[-64.5,18.6],[-67.4,18.6],[-67.4,17.8]]]
      }
    }
  ]
}
